[{"OBJECT_NAME":"OBJECT C","OBJECT_ID":"2023-091C","EPOCH":"2026-03-09T22:19:51.473568","MEAN_MOTION":15.24718365,"ECCENTRICITY":0.0013257,"INCLINATION":97.5143,"RA_OF_ASC_NODE":130.8747,"ARG_OF_PERICENTER":96.9232,"MEAN_ANOMALY":263.3514,"EPHEMERIS_TYPE":0,"CLASSIFICATION_TYPE":"U","NORAD_CAT_ID":57168,"ELEMENT_SET_NO":999,"REV_AT_EPOCH":14912,"BSTAR":0.00051490472,"MEAN_MOTION_DOT":0.00012709,"MEAN_MOTION_DDOT":0},{"OBJECT_NAME":"STARLINK-30931","OBJECT_ID":"2023-180M","EPOCH":"2026-03-09T22:12:15.948576","MEAN_MOTION":15.2674416,"ECCENTRICITY":8.208e-5,"INCLINATION":43.0053,"RA_OF_ASC_NODE":39.9328,"ARG_OF_PERICENTER":198.366,"MEAN_ANOMALY":161.7162,"EPHEMERIS_TYPE":0,"CLASSIFICATION_TYPE":"U","NORAD_CAT_ID":58413,"ELEMENT_SET_NO":999,"REV_AT_EPOCH":12779,"BSTAR":2.2262741e-5,"MEAN_MOTION_DOT":3.38e-6,"MEAN_MOTION_DDOT":0}]
